LANDSAT 9               
1 49260U 21088A   23318.61768467  .00000613  00000+0  14602-3 0  9997
2 49260  98.2149  26.5914 0001175  93.4726 266.6607 14.57116555113297
